KUIPER-00089            
1 64834U 25151U   25274.16667823 -.01093819  00000+0 -47050-1 0  9997
2 64834  51.8848 277.1580 0006577  56.8734  10.2601 15.25129088  5577
KUIPER-00090            
1 64835U 25151V   25274.18142098  .00062143  00000+0  16748-2 0  9996
2 64835  51.8778 276.6315 0008491  69.2549 290.9347 15.37198219 11812
KUIPER-00091            
1 64836U 25151W   25274.16667823 -.00954031  00000+0 -36527-1 0  9997
2 64836  51.8812 276.6918 0009246  71.8777 188.5127 15.28529274  5362
KUIPER-00092            
1 64837U 25151X   25274.16667823 -.00198386  00000+0 -11585-1 0  9998
2 64837  51.8979 278.7277 0010440  58.2448 325.4870 15.12337803  5567
KUIPER-00093            
1 64838U 25151Y   25274.16667823 -.00777841  00000+0 -59926-1 0  9999
2 64838  51.8920 280.1342 0014457  77.6271 241.1078 15.03593468  5346
KUIPER-00094            
1 64839U 25151Z   25274.16667823 -.00036338  00000+0 -15370-2 0  9995
2 64839  51.8849 277.2016 0009412  74.8290 281.8416 15.22530531  5640
KUIPER-00081            
1 65132U 25171A   25273.67687778  .00071181  00000+0  19184-2 0  9990
2 65132  51.8749 162.5991 0003448 326.2324  33.8442 15.37163575  8967
KUIPER-00088            
1 65133U 25171B   25270.16527031  .00069481  00000+0  18784-2 0  9992
2 65133  51.8754 179.5657 0004999 287.4481  72.5959 15.37073507  8424
