<?xml version="1.0" encoding="UTF-8"?>
<ndm xmlns:xsi="http://www.w3.org/2001/XMLSchema-instance" xsi:noNamespaceSchemaLocation="https://sanaregistry.org/r/ndmxml_unqualified/ndmxml-2.0.0-master-2.0.xsd">
<omm id="CCSDS_OMM_VERS" version="2.0">
<header><CREATION_DATE/><ORIGINATOR/></header><body><segment><metadata><OBJECT_NAME>KUIPER-00089</OBJECT_NAME><OBJECT_ID>2025-151U</OBJECT_ID><CENTER_NAME>EARTH</CENTER_NAME><REF_FRAME>TEME</REF_FRAME><TIME_SYSTEM>UTC</TIME_SYSTEM><MEAN_ELEMENT_THEORY>SGP4</MEAN_ELEMENT_THEORY></metadata><data><meanElements><EPOCH>2025-10-01T04:00:00.999072</EPOCH><MEAN_MOTION>15.25129088</MEAN_MOTION><ECCENTRICITY>.0006577</ECCENTRICITY><INCLINATION>51.8848</INCLINATION><RA_OF_ASC_NODE>277.1580</RA_OF_ASC_NODE><ARG_OF_PERICENTER>56.8734</ARG_OF_PERICENTER><MEAN_ANOMALY>10.2601</MEAN_ANOMALY></meanElements><tleParameters><EPHEMERIS_TYPE>0</EPHEMERIS_TYPE><CLASSIFICATION_TYPE>U</CLASSIFICATION_TYPE><NORAD_CAT_ID>64834</NORAD_CAT_ID><ELEMENT_SET_NO>999</ELEMENT_SET_NO><REV_AT_EPOCH>557</REV_AT_EPOCH><BSTAR>-.4705E-1</BSTAR><MEAN_MOTION_DOT>-.1093819E-1</MEAN_MOTION_DOT><MEAN_MOTION_DDOT>0</MEAN_MOTION_DDOT></tleParameters></data></segment></body></omm>
<omm id="CCSDS_OMM_VERS" version="2.0">
<header><CREATION_DATE/><ORIGINATOR/></header><body><segment><metadata><OBJECT_NAME>KUIPER-00090</OBJECT_NAME><OBJECT_ID>2025-151V</OBJECT_ID><CENTER_NAME>EARTH</CENTER_NAME><REF_FRAME>TEME</REF_FRAME><TIME_SYSTEM>UTC</TIME_SYSTEM><MEAN_ELEMENT_THEORY>SGP4</MEAN_ELEMENT_THEORY></metadata><data><meanElements><EPOCH>2025-10-01T04:21:14.772672</EPOCH><MEAN_MOTION>15.37198219</MEAN_MOTION><ECCENTRICITY>.0008491</ECCENTRICITY><INCLINATION>51.8778</INCLINATION><RA_OF_ASC_NODE>276.6315</RA_OF_ASC_NODE><ARG_OF_PERICENTER>69.2549</ARG_OF_PERICENTER><MEAN_ANOMALY>290.9347</MEAN_ANOMALY></meanElements><tleParameters><EPHEMERIS_TYPE>0</EPHEMERIS_TYPE><CLASSIFICATION_TYPE>U</CLASSIFICATION_TYPE><NORAD_CAT_ID>64835</NORAD_CAT_ID><ELEMENT_SET_NO>999</ELEMENT_SET_NO><REV_AT_EPOCH>1181</REV_AT_EPOCH><BSTAR>.16748E-2</BSTAR><MEAN_MOTION_DOT>.62143E-3</MEAN_MOTION_DOT><MEAN_MOTION_DDOT>0</MEAN_MOTION_DDOT></tleParameters></data></segment></body></omm>
<omm id="CCSDS_OMM_VERS" version="2.0">
<header><CREATION_DATE/><ORIGINATOR/></header><body><segment><metadata><OBJECT_NAME>KUIPER-00091</OBJECT_NAME><OBJECT_ID>2025-151W</OBJECT_ID><CENTER_NAME>EARTH</CENTER_NAME><REF_FRAME>TEME</REF_FRAME><TIME_SYSTEM>UTC</TIME_SYSTEM><MEAN_ELEMENT_THEORY>SGP4</MEAN_ELEMENT_THEORY></metadata><data><meanElements><EPOCH>2025-10-01T04:00:00.999072</EPOCH><MEAN_MOTION>15.28529274</MEAN_MOTION><ECCENTRICITY>.0009246</ECCENTRICITY><INCLINATION>51.8812</INCLINATION><RA_OF_ASC_NODE>276.6918</RA_OF_ASC_NODE><ARG_OF_PERICENTER>71.8777</ARG_OF_PERICENTER><MEAN_ANOMALY>188.5127</MEAN_ANOMALY></meanElements><tleParameters><EPHEMERIS_TYPE>0</EPHEMERIS_TYPE><CLASSIFICATION_TYPE>U</CLASSIFICATION_TYPE><NORAD_CAT_ID>64836</NORAD_CAT_ID><ELEMENT_SET_NO>999</ELEMENT_SET_NO><REV_AT_EPOCH>536</REV_AT_EPOCH><BSTAR>-.36527E-1</BSTAR><MEAN_MOTION_DOT>-.954031E-2</MEAN_MOTION_DOT><MEAN_MOTION_DDOT>0</MEAN_MOTION_DDOT></tleParameters></data></segment></body></omm>
<omm id="CCSDS_OMM_VERS" version="2.0">
<header><CREATION_DATE/><ORIGINATOR/></header><body><segment><metadata><OBJECT_NAME>KUIPER-00092</OBJECT_NAME><OBJECT_ID>2025-151X</OBJECT_ID><CENTER_NAME>EARTH</CENTER_NAME><REF_FRAME>TEME</REF_FRAME><TIME_SYSTEM>UTC</TIME_SYSTEM><MEAN_ELEMENT_THEORY>SGP4</MEAN_ELEMENT_THEORY></metadata><data><meanElements><EPOCH>2025-10-01T04:00:00.999072</EPOCH><MEAN_MOTION>15.12337803</MEAN_MOTION><ECCENTRICITY>.001044</ECCENTRICITY><INCLINATION>51.8979</INCLINATION><RA_OF_ASC_NODE>278.7277</RA_OF_ASC_NODE><ARG_OF_PERICENTER>58.2448</ARG_OF_PERICENTER><MEAN_ANOMALY>325.4870</MEAN_ANOMALY></meanElements><tleParameters><EPHEMERIS_TYPE>0</EPHEMERIS_TYPE><CLASSIFICATION_TYPE>U</CLASSIFICATION_TYPE><NORAD_CAT_ID>64837</NORAD_CAT_ID><ELEMENT_SET_NO>999</ELEMENT_SET_NO><REV_AT_EPOCH>556</REV_AT_EPOCH><BSTAR>-.11585E-1</BSTAR><MEAN_MOTION_DOT>-.198386E-2</MEAN_MOTION_DOT><MEAN_MOTION_DDOT>0</MEAN_MOTION_DDOT></tleParameters></data></segment></body></omm>
<omm id="CCSDS_OMM_VERS" version="2.0">
<header><CREATION_DATE/><ORIGINATOR/></header><body><segment><metadata><OBJECT_NAME>KUIPER-00093</OBJECT_NAME><OBJECT_ID>2025-151Y</OBJECT_ID><CENTER_NAME>EARTH</CENTER_NAME><REF_FRAME>TEME</REF_FRAME><TIME_SYSTEM>UTC</TIME_SYSTEM><MEAN_ELEMENT_THEORY>SGP4</MEAN_ELEMENT_THEORY></metadata><data><meanElements><EPOCH>2025-10-01T04:00:00.999072</EPOCH><MEAN_MOTION>15.03593468</MEAN_MOTION><ECCENTRICITY>.0014457</ECCENTRICITY><INCLINATION>51.8920</INCLINATION><RA_OF_ASC_NODE>280.1342</RA_OF_ASC_NODE><ARG_OF_PERICENTER>77.6271</ARG_OF_PERICENTER><MEAN_ANOMALY>241.1078</MEAN_ANOMALY></meanElements><tleParameters><EPHEMERIS_TYPE>0</EPHEMERIS_TYPE><CLASSIFICATION_TYPE>U</CLASSIFICATION_TYPE><NORAD_CAT_ID>64838</NORAD_CAT_ID><ELEMENT_SET_NO>999</ELEMENT_SET_NO><REV_AT_EPOCH>534</REV_AT_EPOCH><BSTAR>-.59926E-1</BSTAR><MEAN_MOTION_DOT>-.777841E-2</MEAN_MOTION_DOT><MEAN_MOTION_DDOT>0</MEAN_MOTION_DDOT></tleParameters></data></segment></body></omm>
<omm id="CCSDS_OMM_VERS" version="2.0">
<header><CREATION_DATE/><ORIGINATOR/></header><body><segment><metadata><OBJECT_NAME>KUIPER-00094</OBJECT_NAME><OBJECT_ID>2025-151Z</OBJECT_ID><CENTER_NAME>EARTH</CENTER_NAME><REF_FRAME>TEME</REF_FRAME><TIME_SYSTEM>UTC</TIME_SYSTEM><MEAN_ELEMENT_THEORY>SGP4</MEAN_ELEMENT_THEORY></metadata><data><meanElements><EPOCH>2025-10-01T04:00:00.999072</EPOCH><MEAN_MOTION>15.22530531</MEAN_MOTION><ECCENTRICITY>.0009412</ECCENTRICITY><INCLINATION>51.8849</INCLINATION><RA_OF_ASC_NODE>277.2016</RA_OF_ASC_NODE><ARG_OF_PERICENTER>74.8290</ARG_OF_PERICENTER><MEAN_ANOMALY>281.8416</MEAN_ANOMALY></meanElements><tleParameters><EPHEMERIS_TYPE>0</EPHEMERIS_TYPE><CLASSIFICATION_TYPE>U</CLASSIFICATION_TYPE><NORAD_CAT_ID>64839</NORAD_CAT_ID><ELEMENT_SET_NO>999</ELEMENT_SET_NO><REV_AT_EPOCH>564</REV_AT_EPOCH><BSTAR>-.1537E-2</BSTAR><MEAN_MOTION_DOT>-.36338E-3</MEAN_MOTION_DOT><MEAN_MOTION_DDOT>0</MEAN_MOTION_DDOT></tleParameters></data></segment></body></omm>
<omm id="CCSDS_OMM_VERS" version="2.0">
<header><CREATION_DATE/><ORIGINATOR/></header><body><segment><metadata><OBJECT_NAME>KUIPER-00081</OBJECT_NAME><OBJECT_ID>2025-171A</OBJECT_ID><CENTER_NAME>EARTH</CENTER_NAME><REF_FRAME>TEME</REF_FRAME><TIME_SYSTEM>UTC</TIME_SYSTEM><MEAN_ELEMENT_THEORY>SGP4</MEAN_ELEMENT_THEORY></metadata><data><meanElements><EPOCH>2025-09-30T16:14:42.240192</EPOCH><MEAN_MOTION>15.37163575</MEAN_MOTION><ECCENTRICITY>.0003448</ECCENTRICITY><INCLINATION>51.8749</INCLINATION><RA_OF_ASC_NODE>162.5991</RA_OF_ASC_NODE><ARG_OF_PERICENTER>326.2324</ARG_OF_PERICENTER><MEAN_ANOMALY>33.8442</MEAN_ANOMALY></meanElements><tleParameters><EPHEMERIS_TYPE>0</EPHEMERIS_TYPE><CLASSIFICATION_TYPE>U</CLASSIFICATION_TYPE><NORAD_CAT_ID>65132</NORAD_CAT_ID><ELEMENT_SET_NO>999</ELEMENT_SET_NO><REV_AT_EPOCH>896</REV_AT_EPOCH><BSTAR>.19184E-2</BSTAR><MEAN_MOTION_DOT>.71181E-3</MEAN_MOTION_DOT><MEAN_MOTION_DDOT>0</MEAN_MOTION_DDOT></tleParameters></data></segment></body></omm>
<omm id="CCSDS_OMM_VERS" version="2.0">
<header><CREATION_DATE/><ORIGINATOR/></header><body><segment><metadata><OBJECT_NAME>KUIPER-00088</OBJECT_NAME><OBJECT_ID>2025-171B</OBJECT_ID><CENTER_NAME>EARTH</CENTER_NAME><REF_FRAME>TEME</REF_FRAME><TIME_SYSTEM>UTC</TIME_SYSTEM><MEAN_ELEMENT_THEORY>SGP4</MEAN_ELEMENT_THEORY></metadata><data><meanElements><EPOCH>2025-09-27T03:57:59.354784</EPOCH><MEAN_MOTION>15.37073507</MEAN_MOTION><ECCENTRICITY>.00049993</ECCENTRICITY><INCLINATION>51.8754</INCLINATION><RA_OF_ASC_NODE>179.5657</RA_OF_ASC_NODE><ARG_OF_PERICENTER>287.4481</ARG_OF_PERICENTER><MEAN_ANOMALY>72.5959</MEAN_ANOMALY></meanElements><tleParameters><EPHEMERIS_TYPE>0</EPHEMERIS_TYPE><CLASSIFICATION_TYPE>U</CLASSIFICATION_TYPE><NORAD_CAT_ID>65133</NORAD_CAT_ID><ELEMENT_SET_NO>999</ELEMENT_SET_NO><REV_AT_EPOCH>842</REV_AT_EPOCH><BSTAR>.18783676E-2</BSTAR><MEAN_MOTION_DOT>.69481E-3</MEAN_MOTION_DOT><MEAN_MOTION_DDOT>0</MEAN_MOTION_DDOT></tleParameters></data></segment></body></omm>

</ndm>
